[{"OBJECT_NAME":"AEROCUBE 8C","OBJECT_ID":"2016-067F","EPOCH":"2026-03-09T13:42:34.002432","MEAN_MOTION":15.23097058,"ECCENTRICITY":0.0006461,"INCLINATION":98.0696,"RA_OF_ASC_NODE":288.5487,"ARG_OF_PERICENTER":53.7064,"MEAN_ANOMALY":306.4766,"EPHEMERIS_TYPE":0,"CLASSIFICATION_TYPE":"U","NORAD_CAT_ID":41853,"ELEMENT_SET_NO":999,"REV_AT_EPOCH":51089,"BSTAR":0.00041541,"MEAN_MOTION_DOT":9.726e-5,"MEAN_MOTION_DDOT":0},{"OBJECT_NAME":"STARLINK-30308","OBJECT_ID":"2023-131L","EPOCH":"2026-03-09T22:00:01.999584","MEAN_MOTION":15.12979471,"ECCENTRICITY":7.615e-5,"INCLINATION":43.0002,"RA_OF_ASC_NODE":170.4619,"ARG_OF_PERICENTER":239.0117,"MEAN_ANOMALY":330.2369,"EPHEMERIS_TYPE":0,"CLASSIFICATION_TYPE":"U","NORAD_CAT_ID":57742,"ELEMENT_SET_NO":999,"REV_AT_EPOCH":578,"BSTAR":0.074115533,"MEAN_MOTION_DOT":0.01457987,"MEAN_MOTION_DDOT":0}]
